ONEWEB-0228             
1 48780U 21045P   23260.57324513 -.00000051  00000+0 -16918-3 0  9997
2 48780  87.8939  99.0227 0001846  86.7589 273.3752 13.15552130112373
